STARS (KUKAI)           
1 33498U 09002G   26191.09666315  .00001754  00000+0  16227-3 0  9990
2 33498  98.1555 139.3434 0010044  93.0835 267.1534 14.95909642941906
KKS-1 (KISEKI)          
1 33499U 09002H   26192.20662356  .00000692  00000+0  91609-4 0  9994
2 33499  98.1178 115.0295 0007100 202.5926 157.4975 14.83183418939753
UK-DMC 2                
1 35683U 09041C   26192.22303034  .00000629  00000+0  98354-4 0  9995
2 35683  97.8859 326.6063 0001489 100.4734 259.6644 14.76091708910111
OCEANSAT-2              
1 35931U 09051A   26192.14737726 -.00000143  00000+0 -72266-4 0  9999
2 35931  98.2318 176.6068 0017081 165.2051 194.9619 13.99656669882686
SWISSCUBE               
1 35932U 09051B   26192.18281227  .00000531  00000+0  11450-3 0  9990
2 35932  98.4014 100.4874 0007656 129.8333 230.3542 14.62526269892660
BEESAT-1                
1 35933U 09051C   26192.20478775  .00000437  00000+0  97507-4 0  9993
2 35933  98.3941 100.0947 0005911 140.2385 219.9249 14.61758109892691
ITUPSAT1                
1 35935U 09051E   26191.18906354  .00000448  00000+0  10253-3 0  9994
2 35935  98.4025  98.2308 0007739 157.5053 202.6487 14.60474362892091
DMSP 5D-3 F18 (USA 210) 
1 35951U 09057A   26192.18441065  .00000188  00000+0  12017-3 0  9993
2 35951  98.9053 172.9031 0010987 176.7483 183.3764 14.14909957862987
PROBA-2                 
1 36037U 09059B   26191.83043166  .00000104  00000+0  34781-4 0  9993
2 36037  98.2458  14.8562 0012699 202.5665 157.4975 14.54872448884966
YAOGAN-7                
1 36110U 09069A   26189.61704388  .00000339  00000+0  54067-4 0  9998
2 36110  98.0044  75.3492 0023935 333.3807  26.6172 14.78031471892792
XIWANG-1 (HOPE-1)       
1 36122U 09072B   26192.18360392 -.00000323  00000+0 -72839-3 0  9995
2 36122 100.4029 145.6333 0007401 173.6926 186.4281 13.16438648796166
COSMOS 2463             
1 36519U 10017A   26190.52262215  .00000040  00000+0  27257-4 0  9996
2 36519  82.9586 233.2956 0037504  69.1372  47.9797 13.71666973810990
CARTOSAT-2B             
1 36795U 10035A   26192.15979573  .00000178  00000+0  31419-4 0  9992
2 36795  97.9945 242.5545 0012483 110.9006 249.3543 14.78613343863396
TISAT 1                 
1 36799U 10035E   26191.30192136  .00014975  00000+0  47786-3 0  9997
2 36799  98.0701 139.9178 0004139 129.6791 230.4814 15.32608332871248
YAOGAN-10               
1 36834U 10038A   26192.20289381  .00000641  00000+0  80697-4 0  9993
2 36834  97.8978 215.4156 0001671  82.4199   5.0990 14.85420889860776
SHIJIAN-6 04B (SJ-6 04B)
1 37180U 10051B   26192.18172552  .00000568  00000+0  51448-4 0  9991
2 37180  97.8745 197.8478 0007265 225.2957 134.7674 14.99383259859273
FENGYUN 3B              
1 37214U 10059A   26192.21161385  .00000127  00000+0  89081-4 0  9998
2 37214  98.9613 238.3265 0023068 117.4306 329.0249 14.14846346810824
COSMO-SKYMED 4          
1 37216U 10060A   26192.20743904  .00000600  00000+0  81924-4 0  9998
2 37216  97.8896  15.4599 0001511  84.2375 275.9010 14.82147704848123
O/OREOS (USA 219)       
1 37224U 10062C   26190.96510575  .00001388  00000+0  13649-3 0  9998
2 37224  71.9708  28.7386 0013679  15.3805 344.7778 14.93839355120041
RESOURCESAT-2           
1 37387U 11015A   26192.15993981  .00000004  00000+0  21970-4 0  9997
2 37387  98.7633 259.4349 0011354 182.4342 177.6782 14.21605302789589
YOUTHSAT                
1 37388U 11015B   26191.40538997  .00000099  00000+0  59146-4 0  9997
2 37388  98.3699 164.4144 0013167 274.5869 238.9635 14.25639398790943
APRIZESAT 6             
1 37793U 11044F   26192.21633218  .00000423  00000+0  67179-4 0  9997
2 37793  98.2343 103.2048 0043385  10.9568 150.0729 14.76953133800699
JUGNU                   
1 37839U 11058B   26192.23374851  .00000361  00000+0  48953-4 0  9990
2 37839  19.9591 162.3323 0018443 342.6467 134.7204 14.13782829762436
SRMSAT                  
1 37841U 11058D   26191.25823061  .00000355  00000+0  48960-4 0  9997
2 37841  19.9719 279.8299 0011870  97.3618 287.0554 14.11580397761080
SUOMI NPP               
1 37849U 11061A   26192.16479477  .00000026  00000+0  33199-4 0  9991
2 37849  98.7956 132.8777 0000592 241.1986 118.9130 14.19522148761845
