OBJECT_NAME,OBJECT_ID,EPOCH,MEAN_MOTION,ECCENTRICITY,INCLINATION,RA_OF_ASC_NODE,ARG_OF_PERICENTER,MEAN_ANOMALY,EPHEMERIS_TYPE,CLASSIFICATION_TYPE,NORAD_CAT_ID,ELEMENT_SET_NO,REV_AT_EPOCH,BSTAR,MEAN_MOTION_DOT,MEAN_MOTION_DDOT
STARS (KUKAI),2009-002G,2026-07-10T02:19:11.696160,14.95909642,.00100441,98.1555,139.3434,93.0835,267.1534,0,U,33498,999,94190,.16226851E-3,.1754E-4,0
KKS-1 (KISEKI),2009-002H,2026-07-11T04:57:32.275584,14.83183418,.00071,98.1178,115.0295,202.5926,157.4975,0,U,33499,999,93975,.91609E-4,.692E-5,0
UK-DMC 2,2009-041C,2026-07-11T05:21:09.821376,14.76091708,.0001489,97.8859,326.6063,100.4734,259.6644,0,U,35683,999,91011,.98354E-4,.629E-5,0
OCEANSAT-2,2009-051A,2026-07-11T03:32:13.395264,13.99656669,.0017081,98.2318,176.6068,165.2051,194.9619,0,U,35931,999,88268,-.72266E-4,-.143E-5,0
SWISSCUBE,2009-051B,2026-07-11T04:23:14.980128,14.62526269,.0007656,98.4014,100.4874,129.8333,230.3542,0,U,35932,999,89266,.1145E-3,.531E-5,0
BEESAT-1,2009-051C,2026-07-11T04:54:53.661600,14.61758109,.0005911,98.3941,100.0947,140.2385,219.9249,0,U,35933,999,89269,.97507E-4,.437E-5,0
ITUPSAT1,2009-051E,2026-07-10T04:32:15.089856,14.60474362,.00077396,98.4025,98.2308,157.5053,202.6487,0,U,35935,999,89209,.10252703E-3,.448E-5,0
DMSP 5D-3 F18 (USA 210),2009-057A,2026-07-11T04:25:33.080160,14.14909957,.0010987,98.9053,172.9031,176.7483,183.3764,0,U,35951,999,86298,.12017E-3,.188E-5,0
PROBA-2,2009-059B,2026-07-10T19:55:49.295424,14.54872448,.0012699,98.2458,14.8562,202.5665,157.4975,0,U,36037,999,88496,.34781E-4,.104E-5,0
YAOGAN-7,2009-069A,2026-07-08T14:48:32.591232,14.78031471,.00239353,98.0044,75.3492,333.3807,26.6172,0,U,36110,999,89279,.54067378E-4,.339E-5,0
XIWANG-1 (HOPE-1),2009-072B,2026-07-11T04:24:23.378688,13.16438648,.0007401,100.4029,145.6333,173.6926,186.4281,0,U,36122,999,79616,-.72839E-3,-.323E-5,0
COSMOS 2463,2010-017A,2026-07-09T12:32:34.553760,13.71666973,.00375044,82.9586,233.2956,69.1372,47.9797,0,U,36519,999,81099,.27256637E-4,.4E-6,0
CARTOSAT-2B,2010-035A,2026-07-11T03:50:06.351072,14.78613343,.0012483,97.9945,242.5545,110.9006,249.3543,0,U,36795,999,86339,.31419E-4,.178E-5,0
TISAT 1,2010-035E,2026-07-10T07:14:46.005504,15.32608332,.00041393,98.0701,139.9178,129.6791,230.4814,0,U,36799,999,87124,.47786423E-3,.14975E-3,0
YAOGAN-10,2010-038A,2026-07-11T04:52:10.025184,14.85420889,.0001671,97.8978,215.4156,82.4199,5.0990,0,U,36834,999,86077,.80697E-4,.641E-5,0
SHIJIAN-6 04B (SJ-6 04B),2010-051B,2026-07-11T04:21:41.084928,14.99383259,.0007265,97.8745,197.8478,225.2957,134.7674,0,U,37180,999,85927,.51448E-4,.568E-5,0
FENGYUN 3B,2010-059A,2026-07-11T05:04:43.436640,14.14846346,.0023068,98.9613,238.3265,117.4306,329.0249,0,U,37214,999,81082,.89081E-4,.127E-5,0
COSMO-SKYMED 4,2010-060A,2026-07-11T04:58:42.733056,14.82147704,.0001511,97.8896,15.4599,84.2375,275.9010,0,U,37216,999,84812,.81924E-4,.6E-5,0
O/OREOS (USA 219),2010-062C,2026-07-09T23:09:45.136800,14.93839355,.00136796,71.9708,28.7386,15.3805,344.7778,0,U,37224,999,12004,.1364878E-3,.1388E-4,0
RESOURCESAT-2,2011-015A,2026-07-11T03:50:18.799584,14.21605302,.0011354,98.7633,259.4349,182.4342,177.6782,0,U,37387,999,78958,.2197E-4,.4E-7,0
YOUTHSAT,2011-015B,2026-07-10T09:43:45.693408,14.25639398,.00131677,98.3699,164.4144,274.5869,238.9635,0,U,37388,999,79094,.5914617E-4,.99E-6,0
APRIZESAT 6,2011-044F,2026-07-11T05:11:31.100352,14.76953133,.0043385,98.2343,103.2048,10.9568,150.0729,0,U,37793,999,80069,.67179E-4,.423E-5,0
JUGNU,2011-058B,2026-07-11T05:36:35.871264,14.13782829,.0018443,19.9591,162.3323,342.6467,134.7204,0,U,37839,999,76243,.48953E-4,.361E-5,0
SRMSAT,2011-058D,2026-07-10T06:11:51.124704,14.11580397,.00118704,19.9719,279.8299,97.3618,287.0554,0,U,37841,999,76108,.48960392E-4,.355E-5,0
SUOMI NPP,2011-061A,2026-07-11T03:57:18.268128,14.19522148,.0000592,98.7956,132.8777,241.1986,118.9130,0,U,37849,999,76184,.33199E-4,.26E-6,0
